$$SOE
2460154.500000000, A.D. 2023-Jul-29 00:00:00.0000, -1.087994256853304E+08, 2.952559264682518E+08, -4.164215219864474E+07,
2460161.500000000, A.D. 2023-Aug-05 00:00:00.0000, -1.178395812372003E+08, 2.849704382621861E+08, -4.054578661346282E+07,
2460168.500000000, A.D. 2023-Aug-12 00:00:00.0000, -1.266894122979111E+08, 2.742251998031080E+08, -3.938399890973824E+07,
2460175.500000000, A.D. 2023-Aug-19 00:00:00.0000, -1.353214800810890E+08, 2.630091106272304E+08, -3.815457889474012E+07,
2460182.500000000, A.D. 2023-Aug-26 00:00:00.0000, -1.437056596700021E+08, 2.513117410171062E+08, -3.685533007579751E+07,
2460189.500000000, A.D. 2023-Sep-02 00:00:00.0000, -1.518089169311597E+08, 2.391236161269908E+08, -3.548410067737138E+07,
2460196.500000000, A.D. 2023-Sep-09 00:00:00.0000, -1.595950885667995E+08, 2.264365626141156E+08, -3.403882295060399E+07,
2460203.500000000, A.D. 2023-Sep-16 00:00:00.0000, -1.670246751741700E+08, 2.132441276580011E+08, -3.251756237315125E+07,
2460210.500000000, A.D. 2023-Sep-23 00:00:00.0000, -1.740546608151691E+08, 1.995420807550033E+08, -3.091857845962163E+07,
2460217.500000000, A.D. 2023-Sep-30 00:00:00.0000, -1.806383781741150E+08, 1.853290089207864E+08, -2.924039880683071E+07,
2460224.500000000, A.D. 2023-Oct-07 00:00:00.0000, -1.867254461655314E+08, 1.706070122717855E+08, -2.748190786438751E+07,
2460231.500000000, A.D. 2023-Oct-14 00:00:00.0000, -1.922618100254675E+08, 1.553825003887690E+08, -2.564245214268642E+07,
2460238.500000000, A.D. 2023-Oct-21 00:00:00.0000, -1.971899187170425E+08, 1.396670883560531E+08, -2.372196271344797E+07,
2460245.500000000, A.D. 2023-Oct-28 00:00:00.0000, -2.014490858497284E+08, 1.234785822399123E+08, -2.172109428668255E+07,
2460252.500000000, A.D. 2023-Nov-04 00:00:00.0000, -2.049760852431487E+08, 1.068420269072258E+08, -1.964137874935935E+07,
2460259.500000000, A.D. 2023-Nov-11 00:00:00.0000, -2.077060324080327E+08, 8.979077091713347E+07, -1.748538880680494E+07,
2460266.500000000, A.D. 2023-Nov-18 00:00:00.0000, -2.095735986915051E+08, 7.236748125373347E+07, -1.525690425798809E+07,
2460273.500000000, A.D. 2023-Nov-25 00:00:00.0000, -2.105145913952925E+08, 5.462501566000734E+07, -1.296106975782145E+07,
2460280.500000000, A.D. 2023-Dec-02 00:00:00.0000, -2.104679075552402E+08, 3.662703590712903E+07, -1.060452901941423E+07,
2460287.500000000, A.D. 2023-Dec-09 00:00:00.0000, -2.093778293819447E+08, 1.844822700395110E+07, -8.195516933087138E+06,
2460294.500000000, A.D. 2023-Dec-16 00:00:00.0000, -2.071965761615399E+08, 1.739825707195555E+05, -5.743888997112551E+06,
2460301.500000000, A.D. 2023-Dec-23 00:00:00.0000, -2.038869657300342E+08, -1.810056607781632E+07, -3.261067883970545E+06,
2460308.500000000, A.D. 2023-Dec-30 00:00:00.0000, -1.994249799114198E+08, -3.627225463170169E+07, -7.598909448470306E+05,
2460315.500000000, A.D. 2024-Jan-06 00:00:00.0000, -1.938019840221725E+08, -5.423233107504230E+07, 1.745648864207443E+06,
2460322.500000000, A.D. 2024-Jan-13 00:00:00.0000, -1.870263327999473E+08, -7.186955080485263E+07, 4.240763433379564E+06,
2460329.500000000, A.D. 2024-Jan-20 00:00:00.0000, -1.791241289951429E+08, -8.907372199283272E+07, 6.710312229921509E+06,
2460336.500000000, A.D. 2024-Jan-27 00:00:00.0000, -1.701389842697126E+08, -1.057394162265072E+08, 9.139294543068413E+06,
2460343.500000000, A.D. 2024-Feb-03 00:00:00.0000, -1.601307488088415E+08, -1.217695129947452E+08, 1.151334855392581E+07,
2460350.500000000, A.D. 2024-Feb-10 00:00:00.0000, -1.491733088052415E+08, -1.370782533162857E+08, 1.381921182062799E+07,
2460357.500000000, A.D. 2024-Feb-17 00:00:00.0000, -1.373516698701077E+08, -1.515935417013981E+08, 1.604510301971756E+07,
2460364.500000000, A.D. 2024-Feb-24 00:00:00.0000, -1.247586223592600E+08, -1.652583422168894E+08, 1.818099664169732E+07,
2460371.500000000, A.D. 2024-Mar-02 00:00:00.0000, -1.114913075941757E+08, -1.780311379776572E+08, 2.021877784573840E+07,
2460378.500000000, A.D. 2024-Mar-09 00:00:00.0000, -9.764797362385817E+07, -1.898855363234087E+08, 2.215228024878836E+07,
2460385.500000000, A.D. 2024-Mar-16 00:00:00.0000, -8.332514009355552E+07, -2.008091833284898E+08, 2.397722199435665E+07,
2460392.500000000, A.D. 2024-Mar-23 00:00:00.0000, -6.861530574873623E+07, -2.108021917612296E+08, 2.569106336814276E+07,
2460399.500000000, A.D. 2024-Mar-30 00:00:00.0000, -5.360524979963565E+07, -2.198752911913902E+08, 2.729281211321327E+07,
2460406.500000000, A.D. 2024-Apr-06 00:00:00.0000, -3.837490730211808E+07, -2.280478876490248E+08, 2.878280076504203E+07,
2460413.500000000, A.D. 2024-Apr-13 00:00:00.0000, -2.299674892581169E+07, -2.353461757834198E+08, 3.016245638741312E+07,
2460420.500000000, A.D. 2024-Apr-20 00:00:00.0000, -7.535575412687216E+06, -2.418013999553358E+08, 3.143407848872304E+07,
2460427.500000000, A.D. 2024-Apr-27 00:00:00.0000, 7.951369133454946E+06, -2.474483227622792E+08, 3.260063548352753E+07,
2460434.500000000, A.D. 2024-May-04 00:00:00.0000, 2.341405702066619E+07, -2.523239262666765E+08, 3.366558538410464E+07,
2460441.500000000, A.D. 2024-May-11 00:00:00.0000, 3.880918929109997E+07, -2.564663463410771E+08, 3.463272292071117E+07,
2460448.500000000, A.D. 2024-May-18 00:00:00.0000, 5.409962456073250E+07, -2.599140246834430E+08, 3.550605282827476E+07,
2460455.500000000, A.D. 2024-May-25 00:00:00.0000, 6.925377295195290E+07, -2.627050543104711E+08, 3.628968746846872E+07,
2460462.500000000, A.D. 2024-Jun-01 00:00:00.0000, 8.424499002314143E+07, -2.648766907526042E+08, 3.698776609793833E+07,
2460469.500000000, A.D. 2024-Jun-08 00:00:00.0000, 9.905099441704847E+07, -2.664650009473896E+08, 3.760439274202052E+07,
2460476.500000000, A.D. 2024-Jun-15 00:00:00.0000, 1.136533242044366E+08, -2.675046231429008E+08, 3.814358966498208E+07,
2460483.500000000, A.D. 2024-Jun-22 00:00:00.0000, 1.280368388625067E+08, -2.680286134558836E+08, 3.860926381098542E+07,
2460490.500000000, A.D. 2024-Jun-29 00:00:00.0000, 1.421892679864060E+08, -2.680683610887136E+08, 3.900518375621347E+07,
2460497.500000000, A.D. 2024-Jul-06 00:00:00.0000, 1.561008093921940E+08, -2.676535582010316E+08, 3.933496457077803E+07,
2460504.500000000, A.D. 2024-Jul-13 00:00:00.0000, 1.697637765194142E+08, -2.668122082203652E+08, 3.960205883313568E+07,
2460511.500000000, A.D. 2024-Jul-20 00:00:00.0000, 1.831722898909857E+08, -2.655706607555655E+08, 3.980975258406698E+07,
2460518.500000000, A.D. 2024-Jul-27 00:00:00.0000, 1.963220080974738E+08, -2.639536656760083E+08, 3.996116499531740E+07,
2460525.500000000, A.D. 2024-Aug-03 00:00:00.0000, 2.092098944874618E+08, -2.619844402327951E+08, 4.005925073346377E+07,
2460532.500000000, A.D. 2024-Aug-10 00:00:00.0000, 2.218340156863699E+08, -2.596847442713642E+08, 4.010680424400813E+07,
2460539.500000000, A.D. 2024-Aug-17 00:00:00.0000, 2.341933681535453E+08, -2.570749597942838E+08, 4.010646536171436E+07,
2460546.500000000, A.D. 2024-Aug-24 00:00:00.0000, 2.462877292604463E+08, -2.541741721509161E+08, 4.006072578666741E+07,
2460553.500000000, A.D. 2024-Aug-31 00:00:00.0000, 2.581175297941346E+08, -2.510002509275295E+08, 3.997193606210264E+07,
2460560.500000000, A.D. 2024-Sep-07 00:00:00.0000, 2.696837453857976E+08, -2.475699290084351E+08, 3.984231276853032E+07,
2460567.500000000, A.D. 2024-Sep-14 00:00:00.0000, 2.809878044191987E+08, -2.438988778575027E+08, 3.967394581335136E+07,
2460574.500000000, A.D. 2024-Sep-21 00:00:00.0000, 2.920315081714333E+08, -2.400017779898463E+08, 3.946880589323315E+07,
2460581.500000000, A.D. 2024-Sep-28 00:00:00.0000, 3.028169607645035E+08, -2.358923874912719E+08, 3.922875180698191E+07,
2460588.500000000, A.D. 2024-Oct-05 00:00:00.0000, 3.133465109236301E+08, -2.315836083963716E+08, 3.895553721069705E+07,
2460595.500000000, A.D. 2024-Oct-12 00:00:00.0000, 3.236227037405697E+08, -2.270875478947463E+08, 3.865081704539160E+07,
2460602.500000000, A.D. 2024-Oct-19 00:00:00.0000, 3.336482394513916E+08, -2.224155746841294E+08, 3.831615374778517E+07,
2460609.500000000, A.D. 2024-Oct-26 00:00:00.0000, 3.434259381308949E+08, -2.175783713866449E+08, 3.795302316737778E+07,
2460616.500000000, A.D. 2024-Nov-02 00:00:00.0000, 3.529587096464576E+08, -2.125859833355918E+08, 3.756282014945593E+07,
2460623.500000000, A.D. 2024-Nov-09 00:00:00.0000, 3.622495281834781E+08, -2.074478638982662E+08, 3.714686377919023E+07,
2460630.500000000, A.D. 2024-Nov-16 00:00:00.0000, 3.713014106961640E+08, -2.021729165351466E+08, 3.670640229167831E+07,
2460637.500000000, A.D. 2024-Nov-23 00:00:00.0000, 3.801173987558970E+08, -1.967695338512728E+08, 3.624261765030368E+07,
2460644.500000000, A.D. 2024-Nov-30 00:00:00.0000, 3.887005435155683E+08, -1.912456338880158E+08, 3.575662978432634E+07,
2460651.500000000, A.D. 2024-Dec-07 00:00:00.0000, 3.970538937932612E+08, -1.856086934368384E+08, 3.524950049743709E+07,
2460658.500000000, A.D. 2024-Dec-14 00:00:00.0000, 4.051804862335805E+08, -1.798657773494126E+08, 3.472223722797158E+07,
2460665.500000000, A.D. 2024-Dec-21 00:00:00.0000, 4.130833349250222E+08, -1.740235652773992E+08, 3.417579678955585E+07,
2460672.500000000, A.D. 2024-Dec-28 00:00:00.0000, 4.207654221822610E+08, -1.680883789901651E+08, 3.361108868487331E+07,
2460679.500000000, A.D. 2025-Jan-04 00:00:00.0000, 4.282296928637583E+08, -1.620662080611832E+08, 3.302897796384760E+07,
2460686.500000000, A.D. 2025-Jan-11 00:00:00.0000, 4.354790502106815E+08, -1.559627324187939E+08, 3.243028794411435E+07,
2460693.500000000, A.D. 2025-Jan-18 00:00:00.0000, 4.425163521255407E+08, -1.497833428251362E+08, 3.181580281744588E+07,
2460700.500000000, A.D. 2025-Jan-25 00:00:00.0000, 4.493444079927992E+08, -1.435331598920716E+08, 3.118627009489256E+07,
2460707.500000000, A.D. 2025-Feb-01 00:00:00.0000, 4.559659761099250E+08, -1.372170517882045E+08, 3.054240288391693E+07,
2460714.500000000, A.D. 2025-Feb-08 00:00:00.0000, 4.623837616836264E+08, -1.308396507316737E+08, 2.988488200611946E+07,
2460721.500000000, A.D. 2025-Feb-15 00:00:00.0000, 4.686004153311962E+08, -1.244053683941391E+08, 2.921435796282217E+07,
$$EOE